NORAD_CAT_ID,OBJECT_NAME,OBJECT_TYPE,EPOCH,MEAN_MOTION,ECCENTRICITY,INCLINATION,RA_OF_ASC_NODE,ARG_OF_PERICENTER,MEAN_ANOMALY,BSTAR,MEAN_MOTION_DOT,MEAN_MOTION_DDOT,TLE_LINE0,TLE_LINE1,TLE_LINE2,SEMIMAJOR_AXIS,PERIOD,APOGEE,PERIGEE,DECAYED
53574.0,STARLINK-4559,PAYLOAD,2022-11-16 14:00:01,15.08837391,0.0001433,53.2175,81.7161,72.33,346.7015,-6.077100000000001e-05,-1.255e-05,0.0,0 STARLINK-4559,1 53574U 22101AZ  22320.58335648 -.00001255  00000-0 -60771-4 0  9991,2 53574  53.2175  81.7161 0001433  72.3300 346.7015 15.08837391  1304,6917.888000000001,95.438,540.745,538.762,0.0
53574.0,STARLINK-4559,PAYLOAD,2022-11-16 22:00:08,15.08837394,0.0001402,53.2172,80.2191,71.2033,359.7981,-5.338899999999999e-05,-1.137e-05,0.0,0 STARLINK-4559,1 53574U 22101AZ  22320.91675926 -.00001137  00000-0 -53389-4 0  9990,2 53574  53.2172  80.2191 0001402  71.2033 359.7981 15.08837394  1304,6917.888000000001,95.438,540.7230000000002,538.783,0.0
53574.0,STARLINK-4559,PAYLOAD,2022-11-17 06:00:00,15.0881242,0.0001641,53.2171,78.7248,68.0195,14.2137,0.0017824,0.00028171,0.0,0 STARLINK-4559,1 53574U 22101AZ  22321.25001157  .00028171  00000-0  17824-2 0  9994,2 53574  53.2171  78.7248 0001641  68.0195  14.2137 15.08812420 14017,6917.965,95.439,540.965,538.694,0.0
53574.0,STARLINK-4559,PAYLOAD,2022-11-17 14:00:01,15.08847975,0.0001689,53.217,77.2301,61.2961,32.5107,-0.0039726,-0.00062974,0.0,0 STARLINK-4559,1 53574U 22101AZ  22321.58334491 -.00062974  00000-0 -39726-2 0  9996,2 53574  53.2170  77.2301 0001689  61.2961  32.5107 15.08847975  1309,6917.856,95.437,540.889,538.553,0.0
53574.0,STARLINK-4559,PAYLOAD,2022-11-17 22:00:00,15.08816676,0.0001611,53.2166,75.7335,57.17100000000001,48.2144,-0.00060408,-9.883e-05,0.0,0 STARLINK-4559,1 53574U 22101AZ  22321.91667824 -.00009883  00000-0 -60408-3 0  9994,2 53574  53.2166  75.7335 0001611  57.1710  48.2144 15.08816676  1304,6917.9519999999975,95.439,540.931,538.702,0.0
53574.0,STARLINK-4559,PAYLOAD,2022-11-18 14:00:01,15.08825894,0.0001646,53.2167,72.7412,59.2391,69.2736,-0.00045313,-7.49e-05,0.0,0 STARLINK-4559,1 53574U 22101AZ  22322.58334491 -.00007490  00000-0 -45313-3 0  9999,2 53574  53.2167  72.7412 0001646  59.2391  69.2736 15.08825894  1306,6917.924,95.438,540.927,538.65,0.0
53574.0,STARLINK-4559,PAYLOAD,2022-11-18 22:00:00,15.08845397,0.0001629999999999,53.2165,71.2444,56.9035,83.1823,-0.00087942,-0.00014259,0.0,0 STARLINK-4559,1 53574U 22101AZ  22322.91667824 -.00014259  00000-0 -87942-3 0  9990,2 53574  53.2165  71.2444 0001630  56.9035  83.1823 15.08845397  1307,6917.864000000001,95.437,540.857,538.601,0.0
53574.0,STARLINK-4559,PAYLOAD,2022-11-19 14:00:01,15.08857414,0.0001609,53.2173,68.2498,66.6985,96.5885,-0.0019344,-0.00030957,0.0,0 STARLINK-4559,1 53574U 22101AZ  22323.58334491 -.00030957  00000-0 -19344-2 0  9998,2 53574  53.2173  68.2498 0001609  66.6985  96.5885 15.08857414 14368,6917.8269999999975,95.436,540.805,538.5790000000002,0.0
53574.0,STARLINK-4559,PAYLOAD,2022-11-19 22:00:00,15.08856016,0.0001571,53.2167,66.755,53.1283,121.7702,-0.0013412,-0.00021579,0.0,0 STARLINK-4559,1 53574U 22101AZ  22323.91667824 -.00021579  00000-0 -13412-2 0  9994,2 53574  53.2167  66.7550 0001571  53.1283 121.7702 15.08856016  1309,6917.831,95.437,540.783,538.61,0.0
53574.0,STARLINK-4559,PAYLOAD,2022-11-20 06:00:00,15.08833989,0.0001448,53.217,65.2575,58.7767,127.7272,0.00035008,5.287e-05,0.0,0 STARLINK-4559,1 53574U 22101AZ  22324.25001157  .00005287  00000-0  35008-3 0  9995,2 53574  53.2170  65.2575 0001448  58.7767 127.7272 15.08833989 14468,6917.899,95.438,540.765,538.762,0.0
53574.0,STARLINK-4559,PAYLOAD,2022-11-20 14:00:01,15.08830135,0.0001622,53.2172,63.7629,50.9563,147.1394,0.00024458,3.606e-05,0.0,0 STARLINK-4559,1 53574U 22101AZ  22324.58334491  .00003606  00000-0  24458-3 0  9991,2 53574  53.2172  63.7629 0001622  50.9563 147.1394 15.08830135  1305,6917.911,95.438,540.898,538.653,0.0
53574.0,STARLINK-4559,PAYLOAD,2022-11-20 22:00:00,15.08857935,0.0001624,53.2174,62.2658,50.7256,158.9513,-0.0039364,-0.00062424,0.0,0 STARLINK-4559,1 53574U 22101AZ  22324.91667824 -.00062424  00000-0 -39364-2 0  9993,2 53574  53.2174  62.2658 0001624  50.7256 158.9513 15.08857935  1302,6917.826,95.436,540.814,538.567,0.0
53574.0,STARLINK-4559,PAYLOAD,2022-11-21 06:00:00,15.08818583,0.0001604,53.2178,60.7685,58.5051,162.7648,0.002255,0.00035762,0.0,0 STARLINK-4559,1 53574U 22101AZ  22325.25001157  .00035762  00000-0  22550-2 0  9994,2 53574  53.2178  60.7685 0001604  58.5051 162.7648 15.08818583 14612,6917.946,95.439,540.92,538.701,0.0
53574.0,STARLINK-4559,PAYLOAD,2022-11-21 14:00:01,15.08832813,0.0001783,53.2179,59.2739,51.2947,181.5635,0.00095507,0.00014942,0.0,0 STARLINK-4559,1 53574U 22101AZ  22325.58334491  .00014942  00000-0  95507-3 0  9990,2 53574  53.2179  59.2739 0001783  51.2947 181.5635 15.08832813  1307,6917.901999999999,95.438,541.001,538.534,0.0
53574.0,STARLINK-4559,PAYLOAD,2022-11-21 22:00:00,15.08872923,0.0001663,53.2182,57.7769,49.8172,194.6313,-0.0040398,-0.00064068,0.0,0 STARLINK-4559,1 53574U 22101AZ  22325.91667824 -.00064068  00000-0 -40398-2 0  9999,2 53574  53.2182  57.7769 0001663  49.8172 194.6313 15.08872923 14710,6917.78,95.435,540.795,538.494,0.0
53574.0,STARLINK-4559,PAYLOAD,2022-11-22 00:00:00,15.08848443,0.0001621,53.2184,57.4024,51.563,285.7955,-0.0015448,-0.00024795,0.0,0 STARLINK-4559,1 53574U 22101AZ  22326.00001157 -.00024795  00000-0 -15448-2 0  9992,2 53574  53.2184  57.4024 0001621  51.5630 285.7955 15.08848443  1301,6917.855,95.437,540.841,538.5980000000002,0.0
53574.0,STARLINK-4559,PAYLOAD,2022-11-22 14:00:01,15.08847169,0.0001721999999999,53.2187,54.7851,47.3647,220.3452,-0.0013554,-0.00021799,0.0,0 STARLINK-4559,1 53574U 22101AZ  22326.58335648 -.00021799  00000-0 -13554-2 0  9997,2 53574  53.2187  54.7851 0001722  47.3647 220.3452 15.08847169 14816,6917.858,95.437,540.915,538.5319999999998,0.0
53574.0,STARLINK-4559,PAYLOAD,2022-11-22 22:00:00,15.0884366,0.0001588,53.2187,53.2881,46.1825,233.0618,-0.0016211,-0.00025998,0.0,0 STARLINK-4559,1 53574U 22101AZ  22326.91667824 -.00025998  00000-0 -16211-2 0  9996,2 53574  53.2187  53.2881 0001588  46.1825 233.0618 15.08843660  1305,6917.869000000002,95.437,540.8330000000002,538.636,0.0
53574.0,STARLINK-4559,PAYLOAD,2022-11-23 14:00:01,15.08811872,0.0001784,53.219,50.2967,47.3874,255.0394,0.00075046,0.00011667,0.0,0 STARLINK-4559,1 53574U 22101AZ  22327.58334491  .00011667  00000-0  75046-3 0  9999,2 53574  53.2190  50.2967 0001784  47.3874 255.0394 15.08811872 14978,6917.965999999999,95.439,541.066,538.597,0.0
53574.0,STARLINK-4559,PAYLOAD,2022-11-23 22:00:00,15.08839772,0.0001663,53.2188,48.7994,48.4317,265.5603,-0.001604,-0.00025725,0.0,0 STARLINK-4559,1 53574U 22101AZ  22327.91667824 -.00025725  00000-0 -16040-2 0  9995,2 53574  53.2188  48.7994 0001663  48.4317 265.5603 15.08839772  1308,6917.880999999999,95.438,540.8969999999998,538.596,0.0
53574.0,STARLINK-4559,PAYLOAD,2022-11-24 14:00:01,15.08829631,0.0001764,53.2188,45.8082,47.5072,289.6627,0.0013956,0.00021986,0.0,0 STARLINK-4559,1 53574U 22101AZ  22328.58334491  .00021986  00000-0  13956-2 0  9996,2 53574  53.2188  45.8082 0001764  47.5072 289.6627 15.08829631  1300,6917.9119999999975,95.438,540.997,538.557,0.0
53574.0,STARLINK-4559,PAYLOAD,2022-11-24 22:00:00,15.08861574,0.0001601,53.2184,44.3107,47.6678,301.095,-0.003968,-0.00062925,0.0,0 STARLINK-4559,1 53574U 22101AZ  22328.91667824 -.00062925  00000-0 -39680-2 0  9994,2 53574  53.2184  44.3107 0001601  47.6678 301.0950 15.08861574 15171,6917.814,95.436,540.7869999999998,538.572,0.0
53574.0,STARLINK-4559,PAYLOAD,2022-11-25 14:00:01,15.08823292,0.0001706999999999,53.2183,41.3196,45.4997,326.4479,0.002166,0.00034337,0.0,0 STARLINK-4559,1 53574U 22101AZ  22329.58334491  .00034337  00000-0  21660-2 0  9992,2 53574  53.2183  41.3196 0001707  45.4997 326.4479 15.08823292 15275,6917.931,95.439,540.977,538.616,0.0
53574.0,STARLINK-4559,PAYLOAD,2022-11-26 00:00:00,15.08838591,0.0001520999999999,53.2179,39.4474,48.323,68.1269,0.0022574,0.0003582,0.0,0 STARLINK-4559,1 53574U 22101AZ  22330.00001157  .00035820  00000-0  22574-2 0  9994,2 53574  53.2179  39.4474 0001521  48.3230  68.1269 15.08838591  1307,6917.885,95.438,540.802,538.697,0.0
53574.0,STARLINK-4559,PAYLOAD,2022-11-26 14:00:01,15.08827873,0.0001694,53.2177,36.8305,42.9097,3.8736,0.0024346,0.00038659,0.0,0 STARLINK-4559,1 53574U 22101AZ  22330.58334491  .00038659  00000-0  24346-2 0  9999,2 53574  53.2177  36.8305 0001694  42.9097   3.8736 15.08827873 15425,6917.917,95.438,540.9540000000002,538.611,0.0
53574.0,STARLINK-4559,PAYLOAD,2022-11-26 22:00:00,15.08853047,0.0001635,53.2175,35.3325,46.6639,11.7215,-0.0020867,-0.00033356,0.0,0 STARLINK-4559,1 53574U 22101AZ  22330.91667824 -.00033356  00000-0 -20867-2 0  9990,2 53574  53.2175  35.3325 0001635  46.6639  11.7215 15.08853047  1301,6917.840999999999,95.437,540.837,538.5740000000002,0.0
53574.0,STARLINK-4559,PAYLOAD,2022-11-27 06:00:00,15.08853269,0.0001724,53.2175,33.836,52.04600000000001,17.9288,-0.0027354,-0.00043575,0.0,0 STARLINK-4559,1 53574U 22101AZ  22331.25001157 -.00043575  00000-0 -27354-2 0  9991,2 53574  53.2175  33.8360 0001724  52.0460  17.9288 15.08853269 15528,6917.84,95.437,540.8969999999998,538.512,0.0
53574.0,STARLINK-4559,PAYLOAD,2022-11-27 14:00:01,15.0880001,0.0001918,53.2175,32.3412,46.7564,34.8162,0.0030746,0.00048931,0.0,0 STARLINK-4559,1 53574U 22101AZ  22331.58334491  .00048931  00000-0  30746-2 0  9995,2 53574  53.2175  32.3412 0001918  46.7564  34.8162 15.08800010  1306,6918.003000000002,95.44,541.194,538.5409999999998,0.0
53574.0,STARLINK-4559,PAYLOAD,2022-11-27 22:00:00,15.08839953,0.0001781,53.2176,30.8431,48.6476,44.4934,-0.0016843,-0.00026994,0.0,0 STARLINK-4559,1 53574U 22101AZ  22331.91667824 -.00026994  00000-0 -16843-2 0  9990,2 53574  53.2176  30.8431 0001781  48.6476  44.4934 15.08839953 15624,6917.880999999999,95.438,540.9780000000002,538.513,0.0
